[
    {
        "CCSDS_OMM_VERS": "2.0",
        "COMMENT": "GENERATED VIA SPACE-TRACK.ORG API",
        "CREATION_DATE": "2023-07-12T06:26:12",
        "ORIGINATOR": "18 SPCS",
        "OBJECT_NAME": "THOR ABLESTAR DEB",
        "OBJECT_ID": "1961-015U",
        "CENTER_NAME": "EARTH",
        "REF_FRAME": "TEME",
        "TIME_SYSTEM": "UTC",
        "MEAN_ELEMENT_THEORY": "SGP4",
        "EPOCH": "2023-07-12T04:28:52.634784",
        "MEAN_MOTION": "13.97095764",
        "ECCENTRICITY": "0.00886810",
        "INCLINATION": "66.8791",
        "RA_OF_ASC_NODE": "162.4164",
        "ARG_OF_PERICENTER": "246.1533",
        "MEAN_ANOMALY": "113.0236",
        "EPHEMERIS_TYPE": "0",
        "CLASSIFICATION_TYPE": "U",
        "NORAD_CAT_ID": "134",
        "ELEMENT_SET_NO": "999",
        "REV_AT_EPOCH": "15651",
        "BSTAR": "0.00013145000000",
        "MEAN_MOTION_DOT": "0.00000112",
        "MEAN_MOTION_DDOT": "0.0000000000000",
        "SEMIMAJOR_AXIS": "7282.006",
        "PERIOD": "103.071",
        "APOAPSIS": "968.449",
        "PERIAPSIS": "839.294",
        "OBJECT_TYPE": "DEBRIS",
        "RCS_SIZE": "LARGE",
        "COUNTRY_CODE": "US",
        "LAUNCH_DATE": "1961-06-29",
        "SITE": "AFETR",
        "DECAY_DATE": null,
        "FILE": "3955671",
        "GP_ID": "234860827",
        "TLE_LINE0": "0 THOR ABLESTAR DEB",
        "TLE_LINE1": "1   134U 61015U   23193.18672031  .00000112  00000-0  13145-3 0  9998",
        "TLE_LINE2": "2   134  66.8791 162.4164 0088681 246.1533 113.0236 13.97095764156511"
    },
    {
        "CCSDS_OMM_VERS": "2.0",
        "COMMENT": "GENERATED VIA SPACE-TRACK.ORG API",
        "CREATION_DATE": "2023-07-12T14:16:11",
        "ORIGINATOR": "18 SPCS",
        "OBJECT_NAME": "THOR ABLESTAR DEB",
        "OBJECT_ID": "1961-015W",
        "CENTER_NAME": "EARTH",
        "REF_FRAME": "TEME",
        "TIME_SYSTEM": "UTC",
        "MEAN_ELEMENT_THEORY": "SGP4",
        "EPOCH": "2023-07-12T06:03:36.823392",
        "MEAN_MOTION": "14.35628366",
        "ECCENTRICITY": "0.00605180",
        "INCLINATION": "67.5289",
        "RA_OF_ASC_NODE": "147.7343",
        "ARG_OF_PERICENTER": "288.3791",
        "MEAN_ANOMALY": "71.0741",
        "EPHEMERIS_TYPE": "0",
        "CLASSIFICATION_TYPE": "U",
        "NORAD_CAT_ID": "136",
        "ELEMENT_SET_NO": "999",
        "REV_AT_EPOCH": "20322",
        "BSTAR": "0.00056283000000",
        "MEAN_MOTION_DOT": "0.00001580",
        "MEAN_MOTION_DDOT": "0.0000000000000",
        "SEMIMAJOR_AXIS": "7151.116",
        "PERIOD": "100.305",
        "APOAPSIS": "816.258",
        "PERIAPSIS": "729.704",
        "OBJECT_TYPE": "DEBRIS",
        "RCS_SIZE": "SMALL",
        "COUNTRY_CODE": "US",
        "LAUNCH_DATE": "1961-06-29",
        "SITE": "AFETR",
        "DECAY_DATE": null,
        "FILE": "3955906",
        "GP_ID": "234866583",
        "TLE_LINE0": "0 THOR ABLESTAR DEB",
        "TLE_LINE1": "1   136U 61015W   23193.25250953  .00001580  00000-0  56283-3 0  9993",
        "TLE_LINE2": "2   136  67.5289 147.7343 0060518 288.3791  71.0741 14.35628366203229"
    },
    {
        "CCSDS_OMM_VERS": "2.0",
        "COMMENT": "GENERATED VIA SPACE-TRACK.ORG API",
        "CREATION_DATE": "2023-07-12T22:36:13",
        "ORIGINATOR": "18 SPCS",
        "OBJECT_NAME": "THOR ABLESTAR DEB",
        "OBJECT_ID": "1961-015Y",
        "CENTER_NAME": "EARTH",
        "REF_FRAME": "TEME",
        "TIME_SYSTEM": "UTC",
        "MEAN_ELEMENT_THEORY": "SGP4",
        "EPOCH": "2023-07-12T18:12:27.430848",
        "MEAN_MOTION": "14.02579044",
        "ECCENTRICITY": "0.00393820",
        "INCLINATION": "67.1530",
        "RA_OF_ASC_NODE": "213.5545",
        "ARG_OF_PERICENTER": "244.3079",
        "MEAN_ANOMALY": "115.3940",
        "EPHEMERIS_TYPE": "0",
        "CLASSIFICATION_TYPE": "U",
        "NORAD_CAT_ID": "138",
        "ELEMENT_SET_NO": "999",
        "REV_AT_EPOCH": "15303",
        "BSTAR": "0.00033191000000",
        "MEAN_MOTION_DOT": "0.00000439",
        "MEAN_MOTION_DDOT": "0.0000000000000",
        "SEMIMAJOR_AXIS": "7263.015",
        "PERIOD": "102.668",
        "APOAPSIS": "913.483",
        "PERIAPSIS": "856.277",
        "OBJECT_TYPE": "DEBRIS",
        "RCS_SIZE": "MEDIUM",
        "COUNTRY_CODE": "US",
        "LAUNCH_DATE": "1961-06-29",
        "SITE": "AFETR",
        "DECAY_DATE": null,
        "FILE": "3956347",
        "GP_ID": "234877443",
        "TLE_LINE0": "0 THOR ABLESTAR DEB",
        "TLE_LINE1": "1   138U 61015Y   23193.75865082  .00000439  00000-0  33191-3 0  9990",
        "TLE_LINE2": "2   138  67.1530 213.5545 0039382 244.3079 115.3940 14.02579044153036"
    },
    {
        "CCSDS_OMM_VERS": "2.0",
        "COMMENT": "GENERATED VIA SPACE-TRACK.ORG API",
        "CREATION_DATE": "2023-07-12T14:46:12",
        "ORIGINATOR": "18 SPCS",
        "OBJECT_NAME": "THOR ABLESTAR DEB",
        "OBJECT_ID": "1961-015AB",
        "CENTER_NAME": "EARTH",
        "REF_FRAME": "TEME",
        "TIME_SYSTEM": "UTC",
        "MEAN_ELEMENT_THEORY": "SGP4",
        "EPOCH": "2023-07-12T08:18:12.965760",
        "MEAN_MOTION": "13.87519849",
        "ECCENTRICITY": "0.00516700",
        "INCLINATION": "66.5885",
        "RA_OF_ASC_NODE": "150.0976",
        "ARG_OF_PERICENTER": "18.7332",
        "MEAN_ANOMALY": "341.5630",
        "EPHEMERIS_TYPE": "0",
        "CLASSIFICATION_TYPE": "U",
        "NORAD_CAT_ID": "141",
        "ELEMENT_SET_NO": "999",
        "REV_AT_EPOCH": "12353",
        "BSTAR": "0.00040953000000",
        "MEAN_MOTION_DOT": "0.00000412",
        "MEAN_MOTION_DDOT": "0.0000000000000",
        "SEMIMAJOR_AXIS": "7315.472",
        "PERIOD": "103.782",
        "APOAPSIS": "975.136",
        "PERIAPSIS": "899.538",
        "OBJECT_TYPE": "DEBRIS",
        "RCS_SIZE": "MEDIUM",
        "COUNTRY_CODE": "US",
        "LAUNCH_DATE": "1961-06-29",
        "SITE": "AFETR",
        "DECAY_DATE": null,
        "FILE": "3956068",
        "GP_ID": "234870318",
        "TLE_LINE0": "0 THOR ABLESTAR DEB",
        "TLE_LINE1": "1   141U 61015AB  23193.34598340  .00000412  00000-0  40953-3 0  9994",
        "TLE_LINE2": "2   141  66.5885 150.0976 0051670  18.7332 341.5630 13.87519849123538"
    },
    {
        "CCSDS_OMM_VERS": "2.0",
        "COMMENT": "GENERATED VIA SPACE-TRACK.ORG API",
        "CREATION_DATE": "2023-07-12T06:26:12",
        "ORIGINATOR": "18 SPCS",
        "OBJECT_NAME": "THOR ABLESTAR DEB",
        "OBJECT_ID": "1961-015AE",
        "CENTER_NAME": "EARTH",
        "REF_FRAME": "TEME",
        "TIME_SYSTEM": "UTC",
        "MEAN_ELEMENT_THEORY": "SGP4",
        "EPOCH": "2023-07-12T04:36:38.030976",
        "MEAN_MOTION": "13.90547323",
        "ECCENTRICITY": "0.00476780",
        "INCLINATION": "66.4988",
        "RA_OF_ASC_NODE": "156.3981",
        "ARG_OF_PERICENTER": "315.3854",
        "MEAN_ANOMALY": "44.3389",
        "EPHEMERIS_TYPE": "0",
        "CLASSIFICATION_TYPE": "U",
        "NORAD_CAT_ID": "144",
        "ELEMENT_SET_NO": "999",
        "REV_AT_EPOCH": "13618",
        "BSTAR": "0.00029183000000",
        "MEAN_MOTION_DOT": "0.00000288",
        "MEAN_MOTION_DDOT": "0.0000000000000",
        "SEMIMAJOR_AXIS": "7304.850",
        "PERIOD": "103.556",
        "APOAPSIS": "961.543",
        "PERIAPSIS": "891.887",
        "OBJECT_TYPE": "DEBRIS",
        "RCS_SIZE": "SMALL",
        "COUNTRY_CODE": "US",
        "LAUNCH_DATE": "1961-06-29",
        "SITE": "AFETR",
        "DECAY_DATE": null,
        "FILE": "3955667",
        "GP_ID": "234860700",
        "TLE_LINE0": "0 THOR ABLESTAR DEB",
        "TLE_LINE1": "1   144U 61015AE  23193.19210684  .00000288  00000-0  29183-3 0  9995",
        "TLE_LINE2": "2   144  66.4988 156.3981 0047678 315.3854  44.3389 13.90547323136183"
    },
    {
        "CCSDS_OMM_VERS": "2.0",
        "COMMENT": "GENERATED VIA SPACE-TRACK.ORG API",
        "CREATION_DATE": "2023-07-12T22:26:13",
        "ORIGINATOR": "18 SPCS",
        "OBJECT_NAME": "THOR ABLESTAR DEB",
        "OBJECT_ID": "1961-015AF",
        "CENTER_NAME": "EARTH",
        "REF_FRAME": "TEME",
        "TIME_SYSTEM": "UTC",
        "MEAN_ELEMENT_THEORY": "SGP4",
        "EPOCH": "2023-07-12T17:10:51.663072",
        "MEAN_MOTION": "14.01898465",
        "ECCENTRICITY": "0.00629780",
        "INCLINATION": "66.9259",
        "RA_OF_ASC_NODE": "154.9077",
        "ARG_OF_PERICENTER": "358.4341",
        "MEAN_ANOMALY": "1.6537",
        "EPHEMERIS_TYPE": "0",
        "CLASSIFICATION_TYPE": "U",
        "NORAD_CAT_ID": "145",
        "ELEMENT_SET_NO": "999",
        "REV_AT_EPOCH": "16706",
        "BSTAR": "0.00029900000000",
        "MEAN_MOTION_DOT": "0.00000386",
        "MEAN_MOTION_DDOT": "0.0000000000000",
        "SEMIMAJOR_AXIS": "7265.366",
        "PERIOD": "102.718",
        "APOAPSIS": "932.986",
        "PERIAPSIS": "841.475",
        "OBJECT_TYPE": "DEBRIS",
        "RCS_SIZE": "MEDIUM",
        "COUNTRY_CODE": "US",
        "LAUNCH_DATE": "1961-06-29",
        "SITE": "AFETR",
        "DECAY_DATE": null,
        "FILE": "3956273",
        "GP_ID": "234875413",
        "TLE_LINE0": "0 THOR ABLESTAR DEB",
        "TLE_LINE1": "1   145U 61015AF  23193.71587573  .00000386  00000-0  29900-3 0  9994",
        "TLE_LINE2": "2   145  66.9259 154.9077 0062978 358.4341   1.6537 14.01898465167060"
    }]